DELTA 2 R/B(1)          
1 20453U 90008B   26002.99460823  .00073326  00000+0  11040-2 0  9990
2 20453  35.6049 243.0856 0105809  11.2163 349.0897 15.47348327915928
COSMOS 2058             
1 20465U 90010A   26003.35268301  .00007936  00000+0  47672-3 0  9999
2 20465  82.4719 111.7733 0010047 195.3094 164.7833 15.10719795932377
SL-14 R/B               
1 20466U 90010B   26003.39713245  .00000915  00000+0  10803-3 0  9992
2 20466  82.5032 328.7065 0020496 151.0725 209.1631 14.83497539918804
SL-14 R/B               
1 20511U 90018B   26003.48709337  .00000920  00000+0  11272-3 0  9995
2 20511  82.5221 284.0402 0015256 310.3918  49.5964 14.82075018912921
HST                     
1 20580U 90037B   26003.34278353  .00012191  00000+0  42034-3 0  9999
2 20580  28.4663 125.4085 0002588 106.1081 253.9799 15.28373863763300
SL-16 R/B               
1 20625U 90046B   26003.44850592  .00000345  00000+0  20247-3 0  9991
2 20625  70.9995  74.9319 0012736  36.4947 323.7041 14.15000519839164
COSMOS 2084             
1 20663U 90055A   26003.49303277  .00006122  00000+0  43739-3 0  9991
2 20663  62.7887 197.8643 0028128 177.7627 182.3604 15.05177119926506
SL-6 R/B(2)             
1 20666U 90055D   26003.45475372  .00004788  00000+0  36557-3 0  9992
2 20666  62.7841 115.6253 0015391 322.9749  37.0287 15.03208984928385
SL-8 R/B                
1 20775U 90078B   26003.34145741  .00022255  00000+0  68196-3 0  9993
2 20775  82.9066 309.9632 0369272 233.1374 123.5466 14.86729534799582
SL-8 R/B                
1 21088U 91006B   26003.11652594  .00000049  00000+0  34254-4 0  9993
2 21088  82.9409 218.8118 0021655 216.6353 256.5775 13.77492860755042
OKEAN-3                 
1 21397U 91039A   26003.50167708  .00006290  00000+0  44912-3 0  9998
2 21397  82.5153  39.9793 0014066 186.1924 173.9131 15.04280057855236
COSMOS 2151             
1 21422U 91042A   26003.44074998  .00003769  00000+0  30238-3 0  9996
2 21422  82.4971 146.5897 0011138 281.1428  78.8544 14.99796727853412
