CCSDS_OMM_VERS = 2.0
CREATION_DATE  = 
ORIGINATOR     = 

OBJECT_NAME    = DELTA 2 R/B(1)
OBJECT_ID      = 1990-008B
CENTER_NAME    = EARTH
REF_FRAME      = TEME
TIME_SYSTEM    = UTC
MEAN_ELEMENT_THEORY = SGP/SGP4

EPOCH          = 2026-01-02T23:52:14.151072
MEAN_MOTION    = 15.47348327
ECCENTRICITY   = .01058098
INCLINATION    = 35.6049
RA_OF_ASC_NODE = 243.0856
ARG_OF_PERICENTER = 11.2163
MEAN_ANOMALY   = 349.0897

EPHEMERIS_TYPE = 0
CLASSIFICATION_TYPE = U
NORAD_CAT_ID   = 20453
ELEMENT_SET_NO = 999
REV_AT_EPOCH   = 91592
BSTAR          = .11039891E-2
MEAN_MOTION_DOT = .73326E-3
MEAN_MOTION_DDOT = 0

CCSDS_OMM_VERS = 2.0
CREATION_DATE  = 
ORIGINATOR     = 

OBJECT_NAME    = COSMOS 2058
OBJECT_ID      = 1990-010A
CENTER_NAME    = EARTH
REF_FRAME      = TEME
TIME_SYSTEM    = UTC
MEAN_ELEMENT_THEORY = SGP/SGP4

EPOCH          = 2026-01-03T08:27:51.812064
MEAN_MOTION    = 15.10719795
ECCENTRICITY   = .0010047
INCLINATION    = 82.4719
RA_OF_ASC_NODE = 111.7733
ARG_OF_PERICENTER = 195.3094
MEAN_ANOMALY   = 164.7833

EPHEMERIS_TYPE = 0
CLASSIFICATION_TYPE = U
NORAD_CAT_ID   = 20465
ELEMENT_SET_NO = 999
REV_AT_EPOCH   = 93237
BSTAR          = .47672E-3
MEAN_MOTION_DOT = .7936E-4
MEAN_MOTION_DDOT = 0

CCSDS_OMM_VERS = 2.0
CREATION_DATE  = 
ORIGINATOR     = 

OBJECT_NAME    = SL-14 R/B
OBJECT_ID      = 1990-010B
CENTER_NAME    = EARTH
REF_FRAME      = TEME
TIME_SYSTEM    = UTC
MEAN_ELEMENT_THEORY = SGP/SGP4

EPOCH          = 2026-01-03T09:31:52.243680
MEAN_MOTION    = 14.83497539
ECCENTRICITY   = .0020496
INCLINATION    = 82.5032
RA_OF_ASC_NODE = 328.7065
ARG_OF_PERICENTER = 151.0725
MEAN_ANOMALY   = 209.1631

EPHEMERIS_TYPE = 0
CLASSIFICATION_TYPE = U
NORAD_CAT_ID   = 20466
ELEMENT_SET_NO = 999
REV_AT_EPOCH   = 91880
BSTAR          = .10803E-3
MEAN_MOTION_DOT = .915E-5
MEAN_MOTION_DDOT = 0

CCSDS_OMM_VERS = 2.0
CREATION_DATE  = 
ORIGINATOR     = 

OBJECT_NAME    = SL-14 R/B
OBJECT_ID      = 1990-018B
CENTER_NAME    = EARTH
REF_FRAME      = TEME
TIME_SYSTEM    = UTC
MEAN_ELEMENT_THEORY = SGP/SGP4

EPOCH          = 2026-01-03T11:41:24.867168
MEAN_MOTION    = 14.82075018
ECCENTRICITY   = .0015256
INCLINATION    = 82.5221
RA_OF_ASC_NODE = 284.0402
ARG_OF_PERICENTER = 310.3918
MEAN_ANOMALY   = 49.5964

EPHEMERIS_TYPE = 0
CLASSIFICATION_TYPE = U
NORAD_CAT_ID   = 20511
ELEMENT_SET_NO = 999
REV_AT_EPOCH   = 91292
BSTAR          = .11272E-3
MEAN_MOTION_DOT = .92E-5
MEAN_MOTION_DDOT = 0

CCSDS_OMM_VERS = 2.0
CREATION_DATE  = 
ORIGINATOR     = 

OBJECT_NAME    = HST
OBJECT_ID      = 1990-037B
CENTER_NAME    = EARTH
REF_FRAME      = TEME
TIME_SYSTEM    = UTC
MEAN_ELEMENT_THEORY = SGP/SGP4

EPOCH          = 2026-01-03T08:13:36.496992
MEAN_MOTION    = 15.28373863
ECCENTRICITY   = .0002588
INCLINATION    = 28.4663
RA_OF_ASC_NODE = 125.4085
ARG_OF_PERICENTER = 106.1081
MEAN_ANOMALY   = 253.9799

EPHEMERIS_TYPE = 0
CLASSIFICATION_TYPE = U
NORAD_CAT_ID   = 20580
ELEMENT_SET_NO = 999
REV_AT_EPOCH   = 76330
BSTAR          = .42034E-3
MEAN_MOTION_DOT = .12191E-3
MEAN_MOTION_DDOT = 0

CCSDS_OMM_VERS = 2.0
CREATION_DATE  = 
ORIGINATOR     = 

OBJECT_NAME    = SL-16 R/B
OBJECT_ID      = 1990-046B
CENTER_NAME    = EARTH
REF_FRAME      = TEME
TIME_SYSTEM    = UTC
MEAN_ELEMENT_THEORY = SGP/SGP4

EPOCH          = 2026-01-03T10:45:50.911488
MEAN_MOTION    = 14.15000519
ECCENTRICITY   = .0012736
INCLINATION    = 70.9995
RA_OF_ASC_NODE = 74.9319
ARG_OF_PERICENTER = 36.4947
MEAN_ANOMALY   = 323.7041

EPHEMERIS_TYPE = 0
CLASSIFICATION_TYPE = U
NORAD_CAT_ID   = 20625
ELEMENT_SET_NO = 999
REV_AT_EPOCH   = 83916
BSTAR          = .20247E-3
MEAN_MOTION_DOT = .345E-5
MEAN_MOTION_DDOT = 0

CCSDS_OMM_VERS = 2.0
CREATION_DATE  = 
ORIGINATOR     = 

OBJECT_NAME    = COSMOS 2084
OBJECT_ID      = 1990-055A
CENTER_NAME    = EARTH
REF_FRAME      = TEME
TIME_SYSTEM    = UTC
MEAN_ELEMENT_THEORY = SGP/SGP4

EPOCH          = 2026-01-03T11:49:58.031328
MEAN_MOTION    = 15.05177119
ECCENTRICITY   = .0028128
INCLINATION    = 62.7887
RA_OF_ASC_NODE = 197.8643
ARG_OF_PERICENTER = 177.7627
MEAN_ANOMALY   = 182.3604

EPHEMERIS_TYPE = 0
CLASSIFICATION_TYPE = U
NORAD_CAT_ID   = 20663
ELEMENT_SET_NO = 999
REV_AT_EPOCH   = 92650
BSTAR          = .43739E-3
MEAN_MOTION_DOT = .6122E-4
MEAN_MOTION_DDOT = 0

CCSDS_OMM_VERS = 2.0
CREATION_DATE  = 
ORIGINATOR     = 

OBJECT_NAME    = SL-6 R/B(2)
OBJECT_ID      = 1990-055D
CENTER_NAME    = EARTH
REF_FRAME      = TEME
TIME_SYSTEM    = UTC
MEAN_ELEMENT_THEORY = SGP/SGP4

EPOCH          = 2026-01-03T10:54:50.721408
MEAN_MOTION    = 15.03208984
ECCENTRICITY   = .0015391
INCLINATION    = 62.7841
RA_OF_ASC_NODE = 115.6253
ARG_OF_PERICENTER = 322.9749
MEAN_ANOMALY   = 37.0287

EPHEMERIS_TYPE = 0
CLASSIFICATION_TYPE = U
NORAD_CAT_ID   = 20666
ELEMENT_SET_NO = 999
REV_AT_EPOCH   = 92838
BSTAR          = .36557E-3
MEAN_MOTION_DOT = .4788E-4
MEAN_MOTION_DDOT = 0

CCSDS_OMM_VERS = 2.0
CREATION_DATE  = 
ORIGINATOR     = 

OBJECT_NAME    = SL-8 R/B
OBJECT_ID      = 1990-078B
CENTER_NAME    = EARTH
REF_FRAME      = TEME
TIME_SYSTEM    = UTC
MEAN_ELEMENT_THEORY = SGP/SGP4

EPOCH          = 2026-01-03T08:11:41.920224
MEAN_MOTION    = 14.86729534
ECCENTRICITY   = .0369272
INCLINATION    = 82.9066
RA_OF_ASC_NODE = 309.9632
ARG_OF_PERICENTER = 233.1374
MEAN_ANOMALY   = 123.5466

EPHEMERIS_TYPE = 0
CLASSIFICATION_TYPE = U
NORAD_CAT_ID   = 20775
ELEMENT_SET_NO = 999
REV_AT_EPOCH   = 79958
BSTAR          = .68196E-3
MEAN_MOTION_DOT = .22255E-3
MEAN_MOTION_DDOT = 0

CCSDS_OMM_VERS = 2.0
CREATION_DATE  = 
ORIGINATOR     = 

OBJECT_NAME    = SL-8 R/B
OBJECT_ID      = 1991-006B
CENTER_NAME    = EARTH
REF_FRAME      = TEME
TIME_SYSTEM    = UTC
MEAN_ELEMENT_THEORY = SGP/SGP4

EPOCH          = 2026-01-03T02:47:47.841216
MEAN_MOTION    = 13.77492860
ECCENTRICITY   = .00216554
INCLINATION    = 82.9409
RA_OF_ASC_NODE = 218.8118
ARG_OF_PERICENTER = 216.6353
MEAN_ANOMALY   = 256.5775

EPHEMERIS_TYPE = 0
CLASSIFICATION_TYPE = U
NORAD_CAT_ID   = 21088
ELEMENT_SET_NO = 999
REV_AT_EPOCH   = 75504
BSTAR          = .34253786E-4
MEAN_MOTION_DOT = .49E-6
MEAN_MOTION_DDOT = 0

CCSDS_OMM_VERS = 2.0
CREATION_DATE  = 
ORIGINATOR     = 

OBJECT_NAME    = OKEAN-3
OBJECT_ID      = 1991-039A
CENTER_NAME    = EARTH
REF_FRAME      = TEME
TIME_SYSTEM    = UTC
MEAN_ELEMENT_THEORY = SGP/SGP4

EPOCH          = 2026-01-03T12:02:24.899712
MEAN_MOTION    = 15.04280057
ECCENTRICITY   = .0014066
INCLINATION    = 82.5153
RA_OF_ASC_NODE = 39.9793
ARG_OF_PERICENTER = 186.1924
MEAN_ANOMALY   = 173.9131

EPHEMERIS_TYPE = 0
CLASSIFICATION_TYPE = U
NORAD_CAT_ID   = 21397
ELEMENT_SET_NO = 999
REV_AT_EPOCH   = 85523
BSTAR          = .44912E-3
MEAN_MOTION_DOT = .629E-4
MEAN_MOTION_DDOT = 0

CCSDS_OMM_VERS = 2.0
CREATION_DATE  = 
ORIGINATOR     = 

OBJECT_NAME    = COSMOS 2151
OBJECT_ID      = 1991-042A
CENTER_NAME    = EARTH
REF_FRAME      = TEME
TIME_SYSTEM    = UTC
MEAN_ELEMENT_THEORY = SGP/SGP4

EPOCH          = 2026-01-03T10:34:40.798272
MEAN_MOTION    = 14.99796727
ECCENTRICITY   = .0011138
INCLINATION    = 82.4971
RA_OF_ASC_NODE = 146.5897
ARG_OF_PERICENTER = 281.1428
MEAN_ANOMALY   = 78.8544

EPHEMERIS_TYPE = 0
CLASSIFICATION_TYPE = U
NORAD_CAT_ID   = 21422
ELEMENT_SET_NO = 999
REV_AT_EPOCH   = 85341
BSTAR          = .30238E-3
MEAN_MOTION_DOT = .3769E-4
MEAN_MOTION_DDOT = 0

